start=new Date('2021-08-30T00:00:00.000Z').valueOf();
sats=[{"ECCENTRICITY":"0.00014760","CENTER_NAME":"EARTH","CLASSIFICATION_TYPE":"U","OBJECT_TYPE":"PAYLOAD","NORAD_CAT_ID":"44238","TIME_SYSTEM":"UTC","PERIAPSIS":"514.639","REF_FRAME":"TEME","SEMIMAJOR_AXIS":"6893.792","LAUNCH_DATE":"2019-05-24","REV_AT_EPOCH":"12379","MEAN_ELEMENT_THEORY":"SGP4","TLE_LINE2":"2 44238  52.9964  13.9997 0001476 108.2804 251.8349 15.16755376123797","GP_ID":"183697992","EPOCH":"2021-08-29T16:22:28.842528","OBJECT_NAME":"STARLINK-24","MEAN_MOTION_DOT":"0.00016034","MEAN_ANOMALY":"251.8349","EPHEMERIS_TYPE":"0","TLE_LINE1":"1 44238U 19029D   21241.68227827  .00016034  00000-0  82116-3 0  9999","SITE":"AFETR","PERIOD":"94.940","MEAN_MOTION":"15.16755376","COUNTRY_CODE":"US","OBJECT_ID":"2019-029D","RA_OF_ASC_NODE":"13.9997","ELEMENT_SET_NO":"999","ARG_OF_PERICENTER":"108.2804","INCLINATION":"52.9964","APOAPSIS":"516.674","RCS_SIZE":"LARGE","MEAN_MOTION_DDOT":"0.0000000000000","FILE":"3105271","BSTAR":"0.00082116000000","DECAY_DATE":null},{"OBJECT_TYPE":"PAYLOAD","CLASSIFICATION_TYPE":"U","CENTER_NAME":"EARTH","ECCENTRICITY":"0.00024600","REV_AT_EPOCH":"12486","MEAN_ELEMENT_THEORY":"SGP4","LAUNCH_DATE":"2019-05-24","SEMIMAJOR_AXIS":"6877.025","REF_FRAME":"TEME","PERIAPSIS":"497.198","NORAD_CAT_ID":"44249","TIME_SYSTEM":"UTC","OBJECT_NAME":"STARLINK-61","GP_ID":"183669604","TLE_LINE2":"2 44249  52.9845 346.3551 0002460 317.5028  42.5777 15.22305719124861","EPOCH":"2021-08-29T13:18:53.026560","TLE_LINE1":"1 44249U 19029Q   21241.55478040  .00026096  00000-0  11284-2 0  9998","EPHEMERIS_TYPE":"0","MEAN_MOTION_DOT":"0.00026096","MEAN_ANOMALY":"42.5777","MEAN_MOTION":"15.22305719","COUNTRY_CODE":"US","PERIOD":"94.593","SITE":"AFETR","ELEMENT_SET_NO":"999","RA_OF_ASC_NODE":"346.3551","OBJECT_ID":"2019-029Q","APOAPSIS":"500.582","RCS_SIZE":"LARGE","INCLINATION":"52.9845","ARG_OF_PERICENTER":"317.5028","DECAY_DATE":null,"BSTAR":"0.00112840000000","FILE":"3105060","MEAN_MOTION_DDOT":"0.0000000000000"},{"PERIOD":"94.809","COUNTRY_CODE":"US","MEAN_MOTION":"15.18842292","SITE":"AFETR","OBJECT_ID":"2019-029T","RA_OF_ASC_NODE":"14.6848","ELEMENT_SET_NO":"999","INCLINATION":"52.9975","RCS_SIZE":"LARGE","APOAPSIS":"510.835","ARG_OF_PERICENTER":"107.6956","FILE":"3105271","DECAY_DATE":null,"BSTAR":"0.00112890000000","MEAN_MOTION_DDOT":"0.0000000000000","CLASSIFICATION_TYPE":"U","CENTER_NAME":"EARTH","OBJECT_TYPE":"PAYLOAD","ECCENTRICITY":"0.00021700","LAUNCH_DATE":"2019-05-24","SEMIMAJOR_AXIS":"6887.475","REV_AT_EPOCH":"12442","MEAN_ELEMENT_THEORY":"SGP4","PERIAPSIS":"507.846","NORAD_CAT_ID":"44252","TIME_SYSTEM":"UTC","REF_FRAME":"TEME","OBJECT_NAME":"STARLINK-71","GP_ID":"183698994","TLE_LINE2":"2 44252  52.9975  14.6848 0002170 107.6956 252.4275 15.18842292124423","EPOCH":"2021-08-29T16:34:59.363904","TLE_LINE1":"1 44252U 19029T   21241.69096486  .00023567  00000-0  11289-2 0  9992","MEAN_ANOMALY":"252.4275","MEAN_MOTION_DOT":"0.00023567","EPHEMERIS_TYPE":"0"},{"REV_AT_EPOCH":"12635","MEAN_ELEMENT_THEORY":"SGP4","LAUNCH_DATE":"2019-05-24","SEMIMAJOR_AXIS":"6801.487","REF_FRAME":"TEME","PERIAPSIS":"421.661","NORAD_CAT_ID":"44257","TIME_SYSTEM":"UTC","OBJECT_TYPE":"PAYLOAD","CLASSIFICATION_TYPE":"U","CENTER_NAME":"EARTH","ECCENTRICITY":"0.00024860","TLE_LINE1":"1 44257U 19029Y   21241.72151281  .00129038  00000-0  24189-2 0  9999","EPHEMERIS_TYPE":"0","MEAN_ANOMALY":"297.5004","MEAN_MOTION_DOT":"0.00129038","OBJECT_NAME":"STARLINK-43","TLE_LINE2":"2 44257  52.9970 249.9326 0002486  62.6255 297.5004 15.47736319126357","GP_ID":"183698744","EPOCH":"2021-08-29T17:18:58.706784","ELEMENT_SET_NO":"999","OBJECT_ID":"2019-029Y","RA_OF_ASC_NODE":"249.9326","MEAN_MOTION":"15.47736319","COUNTRY_CODE":"US","PERIOD":"93.039","SITE":"AFETR","DECAY_DATE":null,"BSTAR":"0.00241890000000","FILE":"3105271","MEAN_MOTION_DDOT":"0.0000000000000","RCS_SIZE":"LARGE","APOAPSIS":"425.043","INCLINATION":"52.9970","ARG_OF_PERICENTER":"62.6255"},{"TLE_LINE1":"1 44281U 19029AY  21241.56354204  .00299364  00000-0  21807-2 0  9992","EPHEMERIS_TYPE":"0","MEAN_ANOMALY":"327.6566","MEAN_MOTION_DOT":"0.00299364","OBJECT_NAME":"STARLINK-70","TLE_LINE2":"2 44281  52.9900 272.2484 0007520  32.4912 327.6566 15.71854050 58015","EPOCH":"2021-08-29T13:31:30.032256","GP_ID":"183697492","MEAN_ELEMENT_THEORY":"SGP4","REV_AT_EPOCH":"5801","LAUNCH_DATE":"2019-05-24","SEMIMAJOR_AXIS":"6731.735","REF_FRAME":"TEME","PERIAPSIS":"348.538","NORAD_CAT_ID":"44281","TIME_SYSTEM":"UTC","OBJECT_TYPE":"PAYLOAD","CLASSIFICATION_TYPE":"U","CENTER_NAME":"EARTH","ECCENTRICITY":"0.00075200","DECAY_DATE":null,"BSTAR":"0.00218070000000","FILE":"3105271","MEAN_MOTION_DDOT":"0.0000000000000","RCS_SIZE":"LARGE","APOAPSIS":"358.663","INCLINATION":"52.9900","ARG_OF_PERICENTER":"32.4912","ELEMENT_SET_NO":"999","RA_OF_ASC_NODE":"272.2484","OBJECT_ID":"2019-029AY","MEAN_MOTION":"15.71854050","COUNTRY_CODE":"US","PERIOD":"91.612","SITE":"AFETR"},{"MEAN_MOTION_DOT":"0.00033928","MEAN_ANOMALY":"230.4783","EPHEMERIS_TYPE":"0","TLE_LINE1":"1 44282U 19029AZ  21241.43539509  .00033928  00000-0  10382-2 0  9990","GP_ID":"183670105","TLE_LINE2":"2 44282  53.0195 296.8381 0003408 129.6518 230.4783 15.33544787125023","EPOCH":"2021-08-29T10:26:58.135776","OBJECT_NAME":"STARLINK-80","NORAD_CAT_ID":"44282","TIME_SYSTEM":"UTC","PERIAPSIS":"462.916","REF_FRAME":"TEME","SEMIMAJOR_AXIS":"6843.383","LAUNCH_DATE":"2019-05-24","MEAN_ELEMENT_THEORY":"SGP4","REV_AT_EPOCH":"12502","ECCENTRICITY":"0.00034080","CENTER_NAME":"EARTH","CLASSIFICATION_TYPE":"U","OBJECT_TYPE":"PAYLOAD","MEAN_MOTION_DDOT":"0.0000000000000","FILE":"3105060","BSTAR":"0.00103820000000","DECAY_DATE":null,"ARG_OF_PERICENTER":"129.6518","INCLINATION":"53.0195","RCS_SIZE":"LARGE","APOAPSIS":"467.581","RA_OF_ASC_NODE":"296.8381","OBJECT_ID":"2019-029AZ","ELEMENT_SET_NO":"999","SITE":"AFETR","PERIOD":"93.900","MEAN_MOTION":"15.33544787","COUNTRY_CODE":"US"},{"OBJECT_NAME":"STARLINK-76","EPOCH":"2021-08-29T18:11:56.700096","TLE_LINE2":"2 44287  52.9868 258.2204 0007688  43.5579 316.6045 15.75486215126378","GP_ID":"183698494","TLE_LINE1":"1 44287U 19029BE  21241.75829514  .00422602  00000-0  25946-2 0  9991","MEAN_MOTION_DOT":"0.00422602","MEAN_ANOMALY":"316.6045","EPHEMERIS_TYPE":"0","CENTER_NAME":"EARTH","CLASSIFICATION_TYPE":"U","OBJECT_TYPE":"PAYLOAD","ECCENTRICITY":"0.00076880","SEMIMAJOR_AXIS":"6721.385","LAUNCH_DATE":"2019-05-24","REV_AT_EPOCH":"12637","MEAN_ELEMENT_THEORY":"SGP4","NORAD_CAT_ID":"44287","TIME_SYSTEM":"UTC","PERIAPSIS":"338.083","REF_FRAME":"TEME","INCLINATION":"52.9868","APOAPSIS":"348.417","RCS_SIZE":"LARGE","ARG_OF_PERICENTER":"43.5579","FILE":"3105271","BSTAR":"0.00259460000000","DECAY_DATE":null,"MEAN_MOTION_DDOT":"0.0000000000000","PERIOD":"91.400","MEAN_MOTION":"15.75486215","COUNTRY_CODE":"US","SITE":"AFETR","RA_OF_ASC_NODE":"258.2204","OBJECT_ID":"2019-029BE","ELEMENT_SET_NO":"999"},{"OBJECT_TYPE":"PAYLOAD","CLASSIFICATION_TYPE":"U","CENTER_NAME":"EARTH","ECCENTRICITY":"0.00014520","MEAN_ELEMENT_THEORY":"SGP4","REV_AT_EPOCH":"9961","LAUNCH_DATE":"2019-11-11","SEMIMAJOR_AXIS":"6925.345","REF_FRAME":"TEME","PERIAPSIS":"546.205","TIME_SYSTEM":"UTC","NORAD_CAT_ID":"44713","OBJECT_NAME":"STARLINK-1007","GP_ID":"183697533","TLE_LINE2":"2 44713  53.0562  46.9479 0001452 102.4786 257.6366 15.06401126 99617","EPOCH":"2021-08-29T18:13:20.152128","TLE_LINE1":"1 44713U 19074A   21241.75926102  .00001786  00000-0  13877-3 0  9993","EPHEMERIS_TYPE":"0","MEAN_ANOMALY":"257.6366","MEAN_MOTION_DOT":"0.00001786","COUNTRY_CODE":"US","MEAN_MOTION":"15.06401126","PERIOD":"95.592","SITE":"AFETR","ELEMENT_SET_NO":"999","RA_OF_ASC_NODE":"46.9479","OBJECT_ID":"2019-074A","RCS_SIZE":"LARGE","APOAPSIS":"548.216","INCLINATION":"53.0562","ARG_OF_PERICENTER":"102.4786","DECAY_DATE":null,"BSTAR":"0.00013877000000","FILE":"3105271","MEAN_MOTION_DDOT":"0.0000000000000"},{"TLE_LINE1":"1 44714U 19074B   21241.73809489  .00000513  00000-0  53346-4 0  9993","EPHEMERIS_TYPE":"0","MEAN_ANOMALY":"258.5011","MEAN_MOTION_DOT":"0.00000513","OBJECT_NAME":"STARLINK-1008","TLE_LINE2":"2 44714  53.0557  47.0102 0002091 101.6213 258.5011 15.06399652 99610","GP_ID":"183698284","EPOCH":"2021-08-29T17:42:51.398496","REV_AT_EPOCH":"9961","MEAN_ELEMENT_THEORY":"SGP4","LAUNCH_DATE":"2019-11-11","SEMIMAJOR_AXIS":"6925.350","REF_FRAME":"TEME","PERIAPSIS":"545.767","NORAD_CAT_ID":"44714","TIME_SYSTEM":"UTC","OBJECT_TYPE":"PAYLOAD","CLASSIFICATION_TYPE":"U","CENTER_NAME":"EARTH","ECCENTRICITY":"0.00020910","DECAY_DATE":null,"BSTAR":"0.00005334600000","FILE":"3105271","MEAN_MOTION_DDOT":"0.0000000000000","RCS_SIZE":"LARGE","APOAPSIS":"548.663","INCLINATION":"53.0557","ARG_OF_PERICENTER":"101.6213","ELEMENT_SET_NO":"999","OBJECT_ID":"2019-074B","RA_OF_ASC_NODE":"47.0102","COUNTRY_CODE":"US","MEAN_MOTION":"15.06399652","PERIOD":"95.592","SITE":"AFETR"},{"MEAN_MOTION_DDOT":"0.0000000000000","FILE":"3105271","BSTAR":"-0.00004984500000","DECAY_DATE":null,"ARG_OF_PERICENTER":"109.9536","INCLINATION":"53.0553","RCS_SIZE":"LARGE","APOAPSIS":"548.322","RA_OF_ASC_NODE":"46.4639","OBJECT_ID":"2019-074C","ELEMENT_SET_NO":"999","SITE":"AFETR","PERIOD":"95.592","MEAN_MOTION":"15.06408539","COUNTRY_CODE":"US","MEAN_ANOMALY":"250.1629","MEAN_MOTION_DOT":"-0.00001024","EPHEMERIS_TYPE":"0","TLE_LINE1":"1 44715U 19074C   21241.85973112 -.00001024  00000-0 -49845-4 0  9991","TLE_LINE2":"2 44715  53.0553  46.4639 0001638 109.9536 250.1629 15.06408539 99629","EPOCH":"2021-08-29T20:38:00.768768","GP_ID":"183698535","OBJECT_NAME":"STARLINK-1009","TIME_SYSTEM":"UTC","NORAD_CAT_ID":"44715","PERIAPSIS":"546.053","REF_FRAME":"TEME","SEMIMAJOR_AXIS":"6925.322","LAUNCH_DATE":"2019-11-11","MEAN_ELEMENT_THEORY":"SGP4","REV_AT_EPOCH":"9962","ECCENTRICITY":"0.00016380","CENTER_NAME":"EARTH","CLASSIFICATION_TYPE":"U","OBJECT_TYPE":"PAYLOAD"}];
